[{"OBJECT_NAME":"STARLINK-1954","OBJECT_ID":"2021-009H","EPOCH":"2026-03-09T23:20:25.352160","MEAN_MOTION":15.30849174,"ECCENTRICITY":0.00046184,"INCLINATION":53.0574,"RA_OF_ASC_NODE":8.8654,"ARG_OF_PERICENTER":103.3293,"MEAN_ANOMALY":256.8222,"EPHEMERIS_TYPE":0,"CLASSIFICATION_TYPE":"U","NORAD_CAT_ID":47555,"ELEMENT_SET_NO":999,"REV_AT_EPOCH":28100,"BSTAR":0.0022371791,"MEAN_MOTION_DOT":0.00067883,"MEAN_MOTION_DDOT":0},{"OBJECT_NAME":"STARLINK-35352","OBJECT_ID":"2025-243A","EPOCH":"2026-03-09T18:10:59.854944","MEAN_MOTION":15.30208384,"ECCENTRICITY":7.361e-5,"INCLINATION":53.159,"RA_OF_ASC_NODE":244.972,"ARG_OF_PERICENTER":66.9614,"MEAN_ANOMALY":293.1464,"EPHEMERIS_TYPE":0,"CLASSIFICATION_TYPE":"U","NORAD_CAT_ID":66177,"ELEMENT_SET_NO":999,"REV_AT_EPOCH":2066,"BSTAR":0.00088636441,"MEAN_MOTION_DOT":0.00025991,"MEAN_MOTION_DDOT":0}]
